{"type": "FeatureCollection", "features": [ {"type": "Feature", "properties": {"norad_id": 66393, "name": "STARLINK-35652", "group": "last-30-days", "lat": 48.27014971028105, "lon": 76.67017787571818, "alt_km": 411.12121630017646, "timestamp": "2025-12-02T06:27:51.800372+00:00", "meta": {"OBJECT_NAME": "STARLINK-35652", "OBJECT_ID": "2025-257P", "EPOCH": "2025-12-01T20:00:01.999008", "MEAN_MOTION": 15.49231246, "ECCENTRICITY": 0.0001614, "INCLINATION": 53.1587, "RA_OF_ASC_NODE": 315.9617, "ARG_OF_PERICENTER": 90.624, "MEAN_ANOMALY": 107.3603, "EPHEMERIS_TYPE": 0, "CLASSIFICATION_TYPE": "U", "NORAD_CAT_ID": 66393, "ELEMENT_SET_NO": 999, "REV_AT_EPOCH": 474, "BSTAR": 0.0023634, "MEAN_MOTION_DOT": 0.0013289, "MEAN_MOTION_DDOT": 0}, "tle": {"line1": "1 66393U 25257P   25335.83335647  .00132890  00000+0  23634-2 0  9997", "line2": "2 66393  53.1587 315.9617 0001614  90.6240 107.3603 15.49231246  4745"}}, "geometry": {"type": "Point", "coordinates": [76.67017787571818, 48.27014971028105]}}, {"type": "Feature", "properties": {"norad_id": 66394, "name": "STARLINK-35672", "group": "last-30-days", "lat": 46.494001551442786, "lon": 81.69021804803366, "alt_km": 411.50816155529446, "timestamp": "2025-12-02T06:27:51.800382+00:00", "meta": {"OBJECT_NAME": "STARLINK-35672", "OBJECT_ID": "2025-257Q", "EPOCH": "2025-12-01T20:00:01.999008", "MEAN_MOTION": 15.49223297, "ECCENTRICITY": 0.0001469, "INCLINATION": 53.1587, "RA_OF_ASC_NODE": 315.9528, "ARG_OF_PERICENTER": 91.3796, "MEAN_ANOMALY": 110.4492, "EPHEMERIS_TYPE": 0, "CLASSIFICATION_TYPE": "U", "NORAD_CAT_ID": 66394, "ELEMENT_SET_NO": 999, "REV_AT_EPOCH": 474, "BSTAR": 0.0023986, "MEAN_MOTION_DOT": 0.0013487, "MEAN_MOTION_DDOT": 0}, "tle": {"line1": "1 66394U 25257Q   25335.83335647  .00134870  00000+0  23986-2 0  9998", "line2": "2 66394  53.1587 315.9528 0001469  91.3796 110.4492 15.49223297  4747"}}, "geometry": {"type": "Point", "coordinates": [81.69021804803366, 46.494001551442786]}}, {"type": "Feature", "properties": {"norad_id": 66395, "name": "STARLINK-35681", "group": "last-30-days", "lat": 45.52656426610853, "lon": 84.07601400051678, "alt_km": 411.47889665630737, "timestamp": "2025-12-02T06:27:51.800392+00:00", "meta": {"OBJECT_NAME": "STARLINK-35681", "OBJECT_ID": "2025-257R", "EPOCH": "2025-12-01T20:00:01.999008", "MEAN_MOTION": 15.49232599, "ECCENTRICITY": 0.0001578, "INCLINATION": 53.1587, "RA_OF_ASC_NODE": 315.9497, "ARG_OF_PERICENTER": 103.0537, "MEAN_ANOMALY": 100.675, "EPHEMERIS_TYPE": 0, "CLASSIFICATION_TYPE": "U", "NORAD_CAT_ID": 66395, "ELEMENT_SET_NO": 999, "REV_AT_EPOCH": 458, "BSTAR": 0.0025455, "MEAN_MOTION_DOT": 0.00143363, "MEAN_MOTION_DDOT": 0}, "tle": {"line1": "1 66395U 25257R   25335.83335647  .00143363  00000+0  25455-2 0  9999", "line2": "2 66395  53.1587 315.9497 0001578 103.0537 100.6750 15.49232599  4583"}}, "geometry": {"type": "Point", "coordinates": [84.07601400051678, 45.52656426610853]}}, {"type": "Feature", "properties": {"norad_id": 66396, "name": "STARLINK-35669", "group": "last-30-days", "lat": 44.51181718073137, "lon": 86.3761356328983, "alt_km": 411.93381272109855, "timestamp": "2025-12-02T06:27:51.800404+00:00", "meta": {"OBJECT_NAME": "STARLINK-35669", "OBJECT_ID": "2025-257S", "EPOCH": "2025-12-01T20:00:01.999008", "MEAN_MOTION": 15.49308582, "ECCENTRICITY": 0.0001538, "INCLINATION": 53.1588, "RA_OF_ASC_NODE": 315.9451, "ARG_OF_PERICENTER": 90.4983, "MEAN_ANOMALY": 115.1318, "EPHEMERIS_TYPE": 0, "CLASSIFICATION_TYPE": "U", "NORAD_CAT_ID": 66396, "ELEMENT_SET_NO": 999, "REV_AT_EPOCH": 474, "BSTAR": -0.00030823, "MEAN_MOTION_DOT": -0.00017552, "MEAN_MOTION_DDOT": 0}, "tle": {"line1": "1 66396U 25257S   25335.83335647 -.00017552  00000+0 -30823-3 0  9998", "line2": "2 66396  53.1588 315.9451 0001538  90.4983 115.1318 15.49308582  4740"}}, "geometry": {"type": "Point", "coordinates": [86.3761356328983, 44.51181718073137]}}, {"type": "Feature", "properties": {"norad_id": 66397, "name": "STARLINK-35510", "group": "last-30-days", "lat": 43.452869190968435, "lon": 88.59552628228577, "alt_km": 412.15152328288787, "timestamp": "2025-12-02T06:27:51.800414+00:00", "meta": {"OBJECT_NAME": "STARLINK-35510", "OBJECT_ID": "2025-257T", "EPOCH": "2025-12-01T20:00:01.999008", "MEAN_MOTION": 15.49232422, "ECCENTRICITY": 0.0001129, "INCLINATION": 53.1588, "RA_OF_ASC_NODE": 315.9416, "ARG_OF_PERICENTER": 99.6234, "MEAN_ANOMALY": 107.9468, "EPHEMERIS_TYPE": 0, "CLASSIFICATION_TYPE": "U", "NORAD_CAT_ID": 66397, "ELEMENT_SET_NO": 999, "REV_AT_EPOCH": 474, "BSTAR": 0.0022842, "MEAN_MOTION_DOT": 0.00128351, "MEAN_MOTION_DDOT": 0}, "tle": {"line1": "1 66397U 25257T   25335.83335647  .00128351  00000+0  22842-2 0  9998", "line2": "2 66397  53.1588 315.9416 0001129  99.6234 107.9468 15.49232422  4742"}}, "geometry": {"type": "Point", "coordinates": [88.59552628228577, 43.452869190968435]}}, {"type": "Feature", "properties": {"norad_id": 66398, "name": "STARLINK-35642", "group": "last-30-days", "lat": 42.34821787791324, "lon": 90.74359965758198, "alt_km": 412.11894930426115, "timestamp": "2025-12-02T06:27:51.800424+00:00", "meta": {"OBJECT_NAME": "STARLINK-35642", "OBJECT_ID": "2025-257U", "EPOCH": "2025-12-01T20:00:01.999008", "MEAN_MOTION": 15.49229802, "ECCENTRICITY": 0.0001435, "INCLINATION": 53.1588, "RA_OF_ASC_NODE": 315.937, "ARG_OF_PERICENTER": 98.7749, "MEAN_ANOMALY": 110.7122, "EPHEMERIS_TYPE": 0, "CLASSIFICATION_TYPE": "U", "NORAD_CAT_ID": 66398, "ELEMENT_SET_NO": 999, "REV_AT_EPOCH": 474, "BSTAR": 0.0024886, "MEAN_MOTION_DOT": 0.00140076, "MEAN_MOTION_DDOT": 0}, "tle": {"line1": "1 66398U 25257U   25335.83335647  .00140076  00000+0  24886-2 0  9997", "line2": "2 66398  53.1588 315.9370 0001435  98.7749 110.7122 15.49229802  4740"}}, "geometry": {"type": "Point", "coordinates": [90.74359965758198, 42.34821787791324]}}, {"type": "Feature", "properties": {"norad_id": 66399, "name": "STARLINK-35657", "group": "last-30-days", "lat": 41.20313036736876, "lon": 92.81940122832766, "alt_km": 412.1747420186648, "timestamp": "2025-12-02T06:27:51.800434+00:00", "meta": {"OBJECT_NAME": "STARLINK-35657", "OBJECT_ID": "2025-257V", "EPOCH": "2025-12-01T20:00:01.999008", "MEAN_MOTION": 15.49234504, "ECCENTRICITY": 0.0001565, "INCLINATION": 53.1587, "RA_OF_ASC_NODE": 315.9332, "ARG_OF_PERICENTER": 99.4829, "MEAN_ANOMALY": 111.9121, "EPHEMERIS_TYPE": 0, "CLASSIFICATION_TYPE": "U", "NORAD_CAT_ID": 66399, "ELEMENT_SET_NO": 999, "REV_AT_EPOCH": 474, "BSTAR": 0.0027193, "MEAN_MOTION_DOT": 0.00153393, "MEAN_MOTION_DDOT": 0}, "tle": {"line1": "1 66399U 25257V   25335.83335647  .00153393  00000+0  27193-2 0  9998", "line2": "2 66399  53.1587 315.9332 0001565  99.4829 111.9121 15.49234504  4746"}}, "geometry": {"type": "Point", "coordinates": [92.81940122832766, 41.20313036736876]}}, {"type": "Feature", "properties": {"norad_id": 66400, "name": "STARLINK-35667", "group": "last-30-days", "lat": 38.82303572668441, "lon": 96.73102636765894, "alt_km": 412.8643368949033, "timestamp": "2025-12-02T06:27:51.800446+00:00", "meta": {"OBJECT_NAME": "STARLINK-35667", "OBJECT_ID": "2025-257W", "EPOCH": "2025-12-01T20:00:01.999008", "MEAN_MOTION": 15.49360287, "ECCENTRICITY": 0.0001645, "INCLINATION": 53.1586, "RA_OF_ASC_NODE": 315.9243, "ARG_OF_PERICENTER": 93.1413, "MEAN_ANOMALY": 122.0477, "EPHEMERIS_TYPE": 0, "CLASSIFICATION_TYPE": "U", "NORAD_CAT_ID": 66400, "ELEMENT_SET_NO": 999, "REV_AT_EPOCH": 474, "BSTAR": -0.0017308, "MEAN_MOTION_DOT": -0.00095716, "MEAN_MOTION_DDOT": 0}, "tle": {"line1": "1 66400U 25257W   25335.83335647 -.00095716  00000+0 -17308-2 0  9994", "line2": "2 66400  53.1586 315.9243 0001645  93.1413 122.0477 15.49360287  4743"}}, "geometry": {"type": "Point", "coordinates": [96.73102636765894, 38.82303572668441]}}, {"type": "Feature", "properties": {"norad_id": 66401, "name": "STARLINK-35668", "group": "last-30-days", "lat": 37.578040144595995, "lon": 98.60072948981652, "alt_km": 412.8253955906912, "timestamp": "2025-12-02T06:27:51.800456+00:00", "meta": {"OBJECT_NAME": "STARLINK-35668", "OBJECT_ID": "2025-257X", "EPOCH": "2025-12-01T20:00:01.999008", "MEAN_MOTION": 15.49238081, "ECCENTRICITY": 0.0001512, "INCLINATION": 53.1587, "RA_OF_ASC_NODE": 315.9211, "ARG_OF_PERICENTER": 100.432, "MEAN_ANOMALY": 116.7135, "EPHEMERIS_TYPE": 0, "CLASSIFICATION_TYPE": "U", "NORAD_CAT_ID": 66401, "ELEMENT_SET_NO": 999, "REV_AT_EPOCH": 474, "BSTAR": 0.0025502, "MEAN_MOTION_DOT": 0.00143661, "MEAN_MOTION_DDOT": 0}, "tle": {"line1": "1 66401U 25257X   25335.83335647  .00143661  00000+0  25502-2 0  9991", "line2": "2 66401  53.1587 315.9211 0001512 100.4320 116.7135 15.49238081  4749"}}, "geometry": {"type": "Point", "coordinates": [98.60072948981652, 37.578040144595995]}}, {"type": "Feature", "properties": {"norad_id": 66402, "name": "STARLINK-35644", "group": "last-30-days", "lat": 40.026685403524496, "lon": 94.8146402606213, "alt_km": 412.4057856104009, "timestamp": "2025-12-02T06:27:51.800466+00:00", "meta": {"OBJECT_NAME": "STARLINK-35644", "OBJECT_ID": "2025-257Y", "EPOCH": "2025-12-01T20:00:01.999008", "MEAN_MOTION": 15.49234206, "ECCENTRICITY": 0.0001502, "INCLINATION": 53.1588, "RA_OF_ASC_NODE": 315.9289, "ARG_OF_PERICENTER": 100.3236, "MEAN_ANOMALY": 112.9898, "EPHEMERIS_TYPE": 0, "CLASSIFICATION_TYPE": "U", "NORAD_CAT_ID": 66402, "ELEMENT_SET_NO": 999, "REV_AT_EPOCH": 474, "BSTAR": 0.0027119, "MEAN_MOTION_DOT": 0.00152964, "MEAN_MOTION_DDOT": 0}, "tle": {"line1": "1 66402U 25257Y   25335.83335647  .00152964  00000+0  27119-2 0  9994", "line2": "2 66402  53.1588 315.9289 0001502 100.3236 112.9898 15.49234206  4749"}}, "geometry": {"type": "Point", "coordinates": [94.8146402606213, 40.026685403524496]}}]}